H1 CPF 01  gfz 2021 05 17 00  6371 terrasarx 
H2 0702601  6201 31698    2021 05 17 00 59 42 2021 05 22 00 00 42   120 1 1  0 0 0
H9
10 0 59355  71982.000000  0    3379993.063  -1028207.950  -5920922.122
10 0 59355  72102.000000  0    3992849.616  -1493951.598  -5418572.231
10 0 59355  72222.000000  0    4528370.329  -1943805.033  -4821474.909
10 0 59355  72342.000000  0    4977535.934  -2368490.427  -4139984.807
10 0 59355  72462.000000  0    5332966.143  -2759006.647  -3385953.182
10 0 59355  72582.000000  0    5589050.732  -3106818.839  -2572529.889
10 0 59355  72702.000000  0    5742048.146  -3404043.749  -1713937.997
10 0 59355  72822.000000  0    5790148.145  -3643626.164   -825226.012
10 0 59355  72942.000000  0    5733497.322  -3819502.726     77998.690
10 0 59355  73062.000000  0    5574185.240  -3926747.768    979849.791
10 0 59355  73182.000000  0    5316191.504  -3961698.677   1864449.925
10 0 59355  73302.000000  0    4965293.194  -3922054.317   2716220.272
10 0 59355  73422.000000  0    4528936.201  -3806945.243   3520162.312
10 0 59355  73542.000000  0    4016075.481  -3616974.831   4262127.805
10 0 59355  73662.000000  0    3436987.039  -3354230.963   4929072.233
10 0 59355  73782.000000  0    2803054.841  -3022266.150   5509285.088
10 0 59355  73902.000000  0    2126541.602  -2626047.788   5992593.183
10 0 59355  74022.000000  0    1420346.183  -2171880.550   6370534.584
10 0 59355  74142.000000  0     697754.122  -1667302.963   6636500.568
10 0 59355  74262.000000  0     -27814.101  -1120959.527   6785845.159
10 0 59355  74382.000000  0    -743052.301   -542450.791   6815960.966
10 0 59355  74502.000000  0   -1435011.459     57835.701   6726321.253
10 0 59355  74622.000000  0   -2091333.153    668911.471   6518488.684
10 0 59355  74742.000000  0   -2700469.750   1279387.445   6196089.983
10 0 59355  74862.000000  0   -3251888.298   1877685.186   5764756.855
10 0 59355  74982.000000  0   -3736255.350   2452256.226   5232034.231
10 0 59355  75102.000000  0   -4145599.765   2991806.557   4607254.639
10 0 59355  75222.000000  0   -4473449.545   3485520.941   3901379.821
10 0 59355  75342.000000  0   -4714940.466   3923282.431   3126811.776
10 0 59355  75462.000000  0   -4866892.644   4295883.016   2297175.783
10 0 59355  75582.000000  0   -4927853.965   4595221.263   1427079.200
10 0 59355  75702.000000  0   -4898108.070   4814479.948    531848.495
10 0 59355  75822.000000  0   -4779647.442   4948278.256   -372747.751
10 0 59355  75942.000000  0   -4576112.806   4992797.477  -1270785.329
10 0 59355  76062.000000  0   -4292696.422   4945874.931  -2146475.474
10 0 59355  76182.000000  0   -3936015.031   4807063.167  -2984449.871
10 0 59355  76302.000000  0   -3513955.940   4577653.458  -3770036.414
10 0 59355  76422.000000  0   -3035499.400   4260663.859  -4489516.859
10 0 59355  76542.000000  0   -2510524.150   3860793.747  -5130362.394
10 0 59355  76662.000000  0   -1949601.581   3384347.953  -5681444.441
10 0 59355  76782.000000  0   -1363781.695   2839130.834  -6133219.781
10 0 59355  76902.000000  0    -764375.087   2234311.869  -6477885.373
10 0 59355  77022.000000  0    -162736.456   1580267.826  -6709501.041
10 0 59355  77142.000000  0     429946.188    888404.305  -6824081.395
10 0 59355  77262.000000  0    1002854.295    170959.671  -6819657.783
10 0 59355  77382.000000  0    1545732.457   -559207.555  -6696308.639
10 0 59355  77502.000000  0    2049067.181  -1288843.893  -6456156.628
10 0 59355  77622.000000  0    2504250.047  -2004535.059  -6103336.266
10 0 59355  77742.000000  0    2903723.546  -2692946.521  -5643930.675
10 0 59355  77862.000000  0    3241108.049  -3341069.617  -5085878.939
10 0 59355  77982.000000  0    3511307.117  -3936468.655  -4438848.539
10 0 59355  78102.000000  0    3710586.724  -4467520.438  -3714077.362
10 0 59355  78222.000000  0    3836629.980  -4923644.888  -2924188.954
10 0 59355  78342.000000  0    3888565.915  -5295523.000  -2082979.761
10 0 59355  78462.000000  0    3866968.310  -5575294.961  -1205179.771
10 0 59355  78582.000000  0    3773825.654  -5756732.075   -306193.090
10 0 59355  78702.000000  0    3612481.582  -5835379.035    598177.910
10 0 59355  78822.000000  0    3387547.165  -5808661.734   1492017.386
10 0 59355  78942.000000  0    3104787.906  -5675957.748   2359586.036
10 0 59355  79062.000000  0    2770985.935  -5438625.393   3185607.081
10 0 59355  79182.000000  0    2393783.006  -5099994.037   3955541.495
10 0 59355  79302.000000  0    1981509.155  -4665315.106   4655848.577
10 0 59355  79422.000000  0    1542999.942  -4141674.480   5274226.268
10 0 59355  79542.000000  0    1087407.982  -3537869.441   5799826.945
10 0 59355  79662.000000  0     624010.912  -2864251.920   6223444.567
10 0 59355  79782.000000  0     162022.366  -2132543.988   6537668.999
10 0 59355  79902.000000  0    -289590.100  -1355629.611   6737008.576
10 0 59355  80022.000000  0    -722277.625   -547326.173   6817981.348
10 0 59355  80142.000000  0   -1128070.675    277862.687   6779172.727
10 0 59355  80262.000000  0   -1499725.268   1105007.221   6621258.378
10 0 59355  80382.000000  0   -1830851.898   1919020.821   6346992.974
10 0 59355  80502.000000  0   -2116025.960   2704934.452   5961165.356
10 0 59355  80622.000000  0   -2350877.368   3448172.568   5470519.811
10 0 59355  80742.000000  0   -2532158.374   4134825.618   4883644.888
10 0 59355  80862.000000  0   -2657789.184   4751915.716   4210829.612
10 0 59355  80982.000000  0   -2726879.044   5287649.206   3463887.530
10 0 59355  81102.000000  0   -2739722.333   5731650.396   2655950.776
10 0 59355  81222.000000  0   -2697769.548   6075170.272   1801238.231
10 0 59355  81342.000000  0   -2603574.090   6311266.081    914801.828
10 0 59355  81462.000000  0   -2460715.262   6434946.927     12255.539
10 0 59355  81582.000000  0   -2273699.997   6443281.517   -890507.678
10 0 59355  81702.000000  0   -2047845.815   6335465.282  -1777606.111
10 0 59355  81822.000000  0   -1789146.005   6112840.922  -2633460.144
10 0 59355  81942.000000  0   -1504122.098   5778873.984  -3443070.513
10 0 59355  82062.000000  0   -1199669.468   5339089.790  -4192282.517
10 0 59355  82182.000000  0    -882898.811   4800970.159  -4868032.403
10 0 59355  82302.000000  0    -560977.279   4173814.855  -5458569.610
10 0 59355  82422.000000  0    -240972.496   3468571.247  -5953654.058
10 0 59355  82542.000000  0      70297.309   2697634.334  -6344724.340
10 0 59355  82662.000000  0     366402.999   1874623.139  -6625033.604
10 0 59355  82782.000000  0     641431.953   1014139.870  -6789755.236
10 0 59355  82902.000000  0     890101.900    131512.935  -6836057.619
10 0 59355  83022.000000  0    1107858.931   -757471.514  -6763147.236
10 0 59355  83142.000000  0    1290958.216  -1636845.744  -6572279.240
10 0 59355  83262.000000  0    1436526.811  -2490738.975  -6266737.586
10 0 59355  83382.000000  0    1542608.778  -3303657.013  -5851786.152
10 0 59355  83502.000000  0    1608190.513  -4060761.624  -5334588.749
10 0 59355  83622.000000  0    1633206.090  -4748142.471  -4724094.989
10 0 59355  83742.000000  0    1618523.344  -5353075.054  -4030896.299
10 0 59355  83862.000000  0    1565909.586  -5864264.158  -3267053.155
10 0 59355  83982.000000  0    1477976.867  -6272065.141  -2445892.423
10 0 59355  84102.000000  0    1358109.388  -6568677.349  -1581778.711
10 0 59355  84222.000000  0    1210373.627  -6748305.004   -689863.296
10 0 59355  84342.000000  0    1039411.836  -6807281.053    214185.263
10 0 59355  84462.000000  0     850323.809  -6744148.799   1114462.751
10 0 59355  84582.000000  0     648537.876  -6559700.447   1995117.245
10 0 59355  84702.000000  0     439675.866  -6256969.981   2840638.425
10 0 59355  84822.000000  0     229414.091  -5841178.730   3636139.796
10 0 59355  84942.000000  0      23344.062  -5319637.434   4367625.655
10 0 59355  85062.000000  0    -173162.340  -4701609.366   5022240.117
10 0 59355  85182.000000  0    -355080.447  -3998135.597   5588493.344
10 0 59355  85302.000000  0    -517849.789  -3221828.101   6056461.298
10 0 59355  85422.000000  0    -657478.617  -2386633.720   6417954.657
10 0 59355  85542.000000  0    -770633.692  -1507578.008   6666654.027
10 0 59355  85662.000000  0    -854713.736   -600493.077   6798214.842
10 0 59355  85782.000000  0    -907905.837    318268.907   6810339.798
10 0 59355  85902.000000  0    -929223.124   1232130.685   6702816.481
10 0 59355  86022.000000  0    -918522.547   2124588.469   6477520.719
10 0 59355  86142.000000  0    -876503.354   2979509.432   6138385.898
10 0 59355  86262.000000  0    -804686.662   3781424.072   5691338.836
10 0 59355  86382.000000  0    -705375.849   4515808.959   5144201.411
99
